[
    {
        "Altitude(m)": 554271.1519560084,
        "Argument of Periapsis(deg)": 0.026491964442854003,
        "Eccentricity": 0.0,
        "Inclination(deg)": 53.0,
        "Latitude(deg)": 24.581733206639594,
        "Longitude(deg)": 116.86500949218724,
        "Mean Anomaly(deg)": 31.275571470310332,
        "RAAN(deg)": 199.96057347411207,
        "Satellite Name": "Starlink Shell 1 901",
        "Satellite Number": 901,
        "Semi-Major Axis(m)": 6931778.249405717,
        "Time(s)": 760
    },
    {
        "Altitude(m)": 554329.2417675933,
        "Argument of Periapsis(deg)": 0.02684054292236524,
        "Eccentricity": 0.0,
        "Inclination(deg)": 53.0,
        "Latitude(deg)": 25.053805170341857,
        "Longitude(deg)": 117.28053196517862,
        "Mean Anomaly(deg)": 31.902402673867055,
        "RAAN(deg)": 199.9600547040346,
        "Satellite Name": "Starlink Shell 1 901",
        "Satellite Number": 901,
        "Semi-Major Axis(m)": 6931778.249405717,
        "Time(s)": 770
    },
    {
        "Altitude(m)": 554388.9430266031,
        "Argument of Periapsis(deg)": 0.027189121401876473,
        "Eccentricity": 0.0,
        "Inclination(deg)": 53.0,
        "Latitude(deg)": 25.524432531694284,
        "Longitude(deg)": 117.69955927937522,
        "Mean Anomaly(deg)": 32.52923387742372,
        "RAAN(deg)": 199.95953593395714,
        "Satellite Name": "Starlink Shell 1 901",
        "Satellite Number": 901,
        "Semi-Major Axis(m)": 6931778.249405717,
        "Time(s)": 780
    },
    {
        "Altitude(m)": 554450.206936567,
        "Argument of Periapsis(deg)": 0.02753769988138771,
        "Eccentricity": 0.0,
        "Inclination(deg)": 53.0,
        "Latitude(deg)": 25.993573472815097,
        "Longitude(deg)": 118.12218365877575,
        "Mean Anomaly(deg)": 33.15606508098042,
        "RAAN(deg)": 199.95901716387965,
        "Satellite Name": "Starlink Shell 1 901",
        "Satellite Number": 901,
        "Semi-Major Axis(m)": 6931778.249405717,
        "Time(s)": 790
    },
    {
        "Altitude(m)": 554512.9840942151,
        "Argument of Periapsis(deg)": 0.02788627836089895,
        "Eccentricity": 0.0,
        "Inclination(deg)": 53.0,
        "Latitude(deg)": 26.461185294830432,
        "Longitude(deg)": 118.54849810912765,
        "Mean Anomaly(deg)": 33.78289628453714,
        "RAAN(deg)": 199.95849839380216,
        "Satellite Name": "Starlink Shell 1 901",
        "Satellite Number": 901,
        "Semi-Major Axis(m)": 6931778.249405717,
        "Time(s)": 800
    },
    {
        "Altitude(m)": 554577.2245160348,
        "Argument of Periapsis(deg)": 0.02823485684041019,
        "Eccentricity": 0.0,
        "Inclination(deg)": 53.0,
        "Latitude(deg)": 26.927224390358013,
        "Longitude(deg)": 118.97859693394827,
        "Mean Anomaly(deg)": 34.409727488093914,
        "RAAN(deg)": 199.9579796237247,
        "Satellite Name": "Starlink Shell 1 901",
        "Satellite Number": 901,
        "Semi-Major Axis(m)": 6931778.249405717,
        "Time(s)": 810
    },
    {
        "Altitude(m)": 554642.8776651032,
        "Argument of Periapsis(deg)": 0.028583435319921423,
        "Eccentricity": 0.0,
        "Inclination(deg)": 53.0,
        "Latitude(deg)": 27.391646215469347,
        "Longitude(deg)": 119.41257624857323,
        "Mean Anomaly(deg)": 35.03655869165056,
        "RAAN(deg)": 199.9574608536472,
        "Satellite Name": "Starlink Shell 1 901",
        "Satellite Number": 901,
        "Semi-Major Axis(m)": 6931778.249405717,
        "Time(s)": 820
    },
    {
        "Altitude(m)": 554709.8924781205,
        "Argument of Periapsis(deg)": 0.028932013799432665,
        "Eccentricity": 0.0,
        "Inclination(deg)": 53.0,
        "Latitude(deg)": 27.854405261139316,
        "Longitude(deg)": 119.85053297916924,
        "Mean Anomaly(deg)": 35.66338989520733,
        "RAAN(deg)": 199.95694208356974,
        "Satellite Name": "Starlink Shell 1 901",
        "Satellite Number": 901,
        "Semi-Major Axis(m)": 6931778.249405717,
        "Time(s)": 830
    },
    {
        "Altitude(m)": 554778.2173927106,
        "Argument of Periapsis(deg)": 0.029280592278943897,
        "Eccentricity": 0.0,
        "Inclination(deg)": 53.0,
        "Latitude(deg)": 28.315455024190545,
        "Longitude(deg)": 120.29256537225692,
        "Mean Anomaly(deg)": 36.290221098764,
        "RAAN(deg)": 199.9564233134923,
        "Satellite Name": "Starlink Shell 1 901",
        "Satellite Number": 901,
        "Semi-Major Axis(m)": 6931778.249405717,
        "Time(s)": 840
    },
    {
        "Altitude(m)": 554847.8003748707,
        "Argument of Periapsis(deg)": 0.029629170758455132,
        "Eccentricity": 0.0,
        "Inclination(deg)": 53.0,
        "Latitude(deg)": 28.774747977748397,
        "Longitude(deg)": 120.7387735016537,
        "Mean Anomaly(deg)": 36.91705230232074,
        "RAAN(deg)": 199.95590454341482,
        "Satellite Name": "Starlink Shell 1 901",
        "Satellite Number": 901,
        "Semi-Major Axis(m)": 6931778.249405717,
        "Time(s)": 850
    },
    {
        "Altitude(m)": 554918.5889466646,
        "Argument of Periapsis(deg)": 0.02997774923796637,
        "Eccentricity": 0.0,
        "Inclination(deg)": 53.0,
        "Latitude(deg)": 29.232235541221865,
        "Longitude(deg)": 121.18925809163284,
        "Mean Anomaly(deg)": 37.54388350587752,
        "RAAN(deg)": 199.95538577333735,
        "Satellite Name": "Starlink Shell 1 901",
        "Satellite Number": 901,
        "Semi-Major Axis(m)": 6931778.249405717,
        "Time(s)": 860
    },
    {
        "Altitude(m)": 554990.5302140535,
        "Argument of Periapsis(deg)": 0.030326327717477602,
        "Eccentricity": 0.0,
        "Inclination(deg)": 53.0,
        "Latitude(deg)": 29.68786804982889,
        "Longitude(deg)": 121.64412185848188,
        "Mean Anomaly(deg)": 38.17071470943414,
        "RAAN(deg)": 199.9548670032599,
        "Satellite Name": "Starlink Shell 1 901",
        "Satellite Number": 901,
        "Semi-Major Axis(m)": 6931778.249405717,
        "Time(s)": 870
    },
    {
        "Altitude(m)": 555063.5708949143,
        "Argument of Periapsis(deg)": 0.030674906196988847,
        "Eccentricity": 0.0,
        "Inclination(deg)": 53.0,
        "Latitude(deg)": 30.14159472369216,
        "Longitude(deg)": 122.10346832728283,
        "Mean Anomaly(deg)": 38.797545912990934,
        "RAAN(deg)": 199.9543482331824,
        "Satellite Name": "Starlink Shell 1 901",
        "Satellite Number": 901,
        "Semi-Major Axis(m)": 6931778.249405717,
        "Time(s)": 880
    },
    {
        "Altitude(m)": 555137.6573472035,
        "Argument of Periapsis(deg)": 0.031023484676500086,
        "Eccentricity": 0.0,
        "Inclination(deg)": 53.0,
        "Latitude(deg)": 30.59336363652857,
        "Longitude(deg)": 122.5674023260626,
        "Mean Anomaly(deg)": 39.4243771165476,
        "RAAN(deg)": 199.95382946310494,
        "Satellite Name": "Starlink Shell 1 901",
        "Satellite Number": 901,
        "Semi-Major Axis(m)": 6931778.249405717,
        "Time(s)": 890
    },
    {
        "Altitude(m)": 555212.7355972367,
        "Argument of Periapsis(deg)": 0.03137206315601132,
        "Eccentricity": 0.0,
        "Inclination(deg)": 53.0,
        "Latitude(deg)": 31.04312168396789,
        "Longitude(deg)": 123.03603047604805,
        "Mean Anomaly(deg)": 40.05120832010432,
        "RAAN(deg)": 199.95331069302745,
        "Satellite Name": "Starlink Shell 1 901",
        "Satellite Number": 901,
        "Semi-Major Axis(m)": 6931778.249405717,
        "Time(s)": 900
    },
    {
        "Altitude(m)": 555288.7513681179,
        "Argument of Periapsis(deg)": 0.03172064163552255,
        "Eccentricity": 0.0,
        "Inclination(deg)": 53.0,
        "Latitude(deg)": 31.490814551534694,
        "Longitude(deg)": 123.50946016483239,
        "Mean Anomaly(deg)": 40.67803952366102,
        "RAAN(deg)": 199.95279192294998,
        "Satellite Name": "Starlink Shell 1 901",
        "Satellite Number": 901,
        "Semi-Major Axis(m)": 6931778.249405717,
        "Time(s)": 910
    },
    {
        "Altitude(m)": 555365.6501082422,
        "Argument of Periapsis(deg)": 0.0320692201150338,
        "Eccentricity": 0.0,
        "Inclination(deg)": 53.0,
        "Latitude(deg)": 31.936386682336064,
        "Longitude(deg)": 123.98780002787358,
        "Mean Anomaly(deg)": 41.30487072721775,
        "RAAN(deg)": 199.9522731528725,
        "Satellite Name": "Starlink Shell 1 901",
        "Satellite Number": 901,
        "Semi-Major Axis(m)": 6931778.249405717,
        "Time(s)": 920
    },
    {
        "Altitude(m)": 555443.3770199148,
        "Argument of Periapsis(deg)": 0.032417798594545036,
        "Eccentricity": 0.0,
        "Inclination(deg)": 53.0,
        "Latitude(deg)": 32.37978124450039,
        "Longitude(deg)": 124.47116042509361,
        "Mean Anomaly(deg)": 41.931701930774516,
        "RAAN(deg)": 199.95175438279503,
        "Satellite Name": "Starlink Shell 1 901",
        "Satellite Number": 901,
        "Semi-Major Axis(m)": 6931778.249405717,
        "Time(s)": 930
    },
    {
        "Altitude(m)": 555521.8770880193,
        "Argument of Periapsis(deg)": 0.03276637707405627,
        "Eccentricity": 0.0,
        "Inclination(deg)": 53.0,
        "Latitude(deg)": 32.82094009842356,
        "Longitude(deg)": 124.95965239933489,
        "Mean Anomaly(deg)": 42.55853313433121,
        "RAAN(deg)": 199.95123561271754,
        "Satellite Name": "Starlink Shell 1 901",
        "Satellite Number": 901,
        "Semi-Major Axis(m)": 6931778.249405717,
        "Time(s)": 940
    }
]